GOES 1 (SMS-C) [-]      
1 08366U 75100A   23028.44407073 -.00000157  00000+0  00000+0 0  9992
2 08366   7.7289 292.8933 0002097 319.7547 302.5987  1.00233743172678
GOES 2 [-]              
1 10061U 77048A   23028.78382755  .00000060  00000+0  00000+0 0  9998
2 10061   9.3376 304.7316 0012657  26.7955 152.3677  0.99392906 33999
GOES 3 [-]              
1 10953U 78062A   23028.37083073 -.00000036  00000+0  00000+0 0  9995
2 10953   9.6856 309.3942 0000961 124.5775  93.3434  0.99357792116253
GOES 4 [-]              
1 11964U 80074A   23028.49216140  .00000084  00000+0  00000+0 0  9992
2 11964  10.6628 313.2243 0032709  77.8297 141.6372  0.99228446115178
GOES 5 [-]              
1 12472U 81049A   23029.12822736 -.00000279  00000+0  00000+0 0  9992
2 12472  11.5667 324.7581 0000461 293.6749 207.1909  1.00251450110586
GOES 6 [-]              
1 14050U 83041A   23028.37721442 -.00000237  00000+0  00000+0 0  9992
2 14050  12.1613 330.1218 0002560 148.7023  63.3401  1.00240015203625
GOES 7 [-]              
1 17561U 87022A   23029.33887753 -.00000293  00000+0  00000+0 0  9992
2 17561  14.0472 346.7213 0004675  54.1785 153.7689  0.99900088114646
GOES 8 [-]              
1 23051U 94022A   23029.26421644 -.00000254  00000+0  00000+0 0  9993
2 23051  13.3684  22.5983 0005173  17.3195 154.1982  0.98907119111905
GOES 9 [-]              
1 23581U 95025A   23028.79845909 -.00000280  00000+0  00000+0 0  9995
2 23581  12.8641  23.0154 0004075 109.2457  76.2926  0.98802529100547
GOES 10 [-]             
1 24786U 97019A   23029.00059774 -.00000033  00000+0  00000+0 0  9996
2 24786  11.6755  29.2838 0027404 208.4489 338.6115  0.99121066 93810
GOES 11 [-]             
1 26352U 00022A   23006.96351337 -.00000221  00000+0  00000+0 0  9994
2 26352   9.1149  57.6931 0002528 218.3131 163.0809  0.99045202 40025
GOES 12 [-]             
1 26871U 01031A   23028.60054417  .00000056  00000+0  00000+0 0  9990
2 26871   9.9215  46.6911 0005605 310.6114 226.3678  0.99134746 78519
EWS-G1 (GOES 13) [+]    
1 29155U 06018A   23028.85189118  .00000039  00000+0  00000+0 0  9993
2 29155   1.1622  92.7273 0004645 168.3567 234.7159  1.00267290 30990
GOES 14 [B]             
1 35491U 09033A   23029.30784487 -.00000089  00000+0  00000+0 0  9990
2 35491   0.0624 215.3117 0016691  14.0319 265.1961  1.00268601 49778
GOES 15 [B]             
1 36411U 10008A   23029.50123058  .00000057  00000+0  00000+0 0  9994
2 36411   0.0153  62.8121 0002361 132.3665 345.4550  1.00270256 47273
GOES 16 [+]             
1 41866U 16071A   23029.16076297 -.00000247  00000+0  00000+0 0  9996
2 41866   0.0806 261.7576 0000765  68.1861 140.8619  1.00270988 22720
GOES 17 [+]             
1 43226U 18022A   23029.37852161 -.00000056  00000+0  00000+0 0  9999
2 43226   0.0092 120.8458 0000822 227.6586 158.8752  1.00596456 18052
GOES 18 [+]             
1 51850U 22021A   23029.52954209  .00000099  00000+0  00000+0 0  9994
2 51850   0.0096 304.6501 0000241 333.5866 263.8797  1.00271054  3427
